[{"OBJECT_NAME":"STARLINK-3268","OBJECT_ID":"2021-125AL","EPOCH":"2026-03-09T21:39:24.501888","MEAN_MOTION":15.08832645,"ECCENTRICITY":0.00012008,"INCLINATION":53.2168,"RA_OF_ASC_NODE":238.1677,"ARG_OF_PERICENTER":74.789,"MEAN_ANOMALY":285.3235,"EPHEMERIS_TYPE":0,"CLASSIFICATION_TYPE":"U","NORAD_CAT_ID":50190,"ELEMENT_SET_NO":999,"REV_AT_EPOCH":23676,"BSTAR":-0.00011596384,"MEAN_MOTION_DOT":-2.133e-5,"MEAN_MOTION_DDOT":0},{"OBJECT_NAME":"SL-24 PLAT","OBJECT_ID":"2014-033AR","EPOCH":"2026-03-09T22:47:27.152448","MEAN_MOTION":15.0919716,"ECCENTRICITY":0.00052059,"INCLINATION":98.0981,"RA_OF_ASC_NODE":61.9435,"ARG_OF_PERICENTER":212.2329,"MEAN_ANOMALY":147.8581,"EPHEMERIS_TYPE":0,"CLASSIFICATION_TYPE":"U","NORAD_CAT_ID":40049,"ELEMENT_SET_NO":999,"REV_AT_EPOCH":63724,"BSTAR":0.00046923352,"MEAN_MOTION_DOT":7.393e-5,"MEAN_MOTION_DDOT":0}]
